start=new Date('2022-08-12T00:00:00.000Z').valueOf();
sats=[{"OBJECT_NAME":"STARLINK-3313","ELEMENT_SET_NO":"999","DECAY_DATE":null,"PERIOD":"95.438","APOAPSIS":"540.897","COUNTRY_CODE":"US","SEMIMAJOR_AXIS":"6917.893","ECCENTRICITY":"0.00016460","MEAN_MOTION_DDOT":"0.0000000000000","REF_FRAME":"TEME","TLE_LINE2":"2 50157  53.2168   1.5498 0001646  66.6080 293.5085 15.08835829 36229","OBJECT_ID":"2021-125B","MEAN_MOTION":"15.08835829","CENTER_NAME":"EARTH","OBJECT_TYPE":"PAYLOAD","MEAN_MOTION_DOT":"0.00000873","SITE":"AFWTR","EPHEMERIS_TYPE":"0","ARG_OF_PERICENTER":"66.6080","GP_ID":"210034363","EPOCH":"2022-08-11T18:52:03.130176","TLE_LINE1":"1 50157U 21125B   22223.78614734  .00000873  00000-0  72940-4 0  9994","BSTAR":"0.00007294000000","FILE":"3534461","RCS_SIZE":"LARGE","RA_OF_ASC_NODE":"1.5498","CLASSIFICATION_TYPE":"U","INCLINATION":"53.2168","NORAD_CAT_ID":"50157","MEAN_ANOMALY":"293.5085","TIME_SYSTEM":"UTC","MEAN_ELEMENT_THEORY":"SGP4","REV_AT_EPOCH":"3622","LAUNCH_DATE":"2021-12-18","PERIAPSIS":"538.619"},{"RCS_SIZE":"LARGE","FILE":"3534461","BSTAR":"0.00005879200000","RA_OF_ASC_NODE":"1.6115","CLASSIFICATION_TYPE":"U","NORAD_CAT_ID":"50158","INCLINATION":"53.2181","MEAN_ANOMALY":"300.7416","TIME_SYSTEM":"UTC","MEAN_ELEMENT_THEORY":"SGP4","LAUNCH_DATE":"2021-12-18","REV_AT_EPOCH":"3622","PERIAPSIS":"538.674","MEAN_MOTION":"15.08831821","MEAN_MOTION_DOT":"0.00000648","OBJECT_TYPE":"PAYLOAD","CENTER_NAME":"EARTH","SITE":"AFWTR","EPHEMERIS_TYPE":"0","ARG_OF_PERICENTER":"59.3733","EPOCH":"2022-08-11T18:36:09.395136","GP_ID":"210034727","TLE_LINE1":"1 50158U 21125C   22223.77510874  .00000648  00000-0  58792-4 0  9993","SEMIMAJOR_AXIS":"6917.905","ECCENTRICITY":"0.00015850","MEAN_MOTION_DDOT":"0.0000000000000","REF_FRAME":"TEME","TLE_LINE2":"2 50158  53.2181   1.6115 0001585  59.3733 300.7416 15.08831821 36225","OBJECT_ID":"2021-125C","OBJECT_NAME":"STARLINK-3309","ELEMENT_SET_NO":"999","DECAY_DATE":null,"PERIOD":"95.438","APOAPSIS":"540.867","COUNTRY_CODE":"US"},{"REV_AT_EPOCH":"3576","LAUNCH_DATE":"2021-12-18","PERIAPSIS":"538.618","MEAN_ANOMALY":"298.8299","INCLINATION":"53.2168","NORAD_CAT_ID":"50159","MEAN_ELEMENT_THEORY":"SGP4","TIME_SYSTEM":"UTC","FILE":"3534746","RCS_SIZE":"LARGE","BSTAR":"0.00018630000000","CLASSIFICATION_TYPE":"U","RA_OF_ASC_NODE":"1.6193","TLE_LINE1":"1 50159U 21125D   22223.77142680  .00002678  00000-0  18630-3 0  9991","EPOCH":"2022-08-11T18:30:51.275520","GP_ID":"210041235","EPHEMERIS_TYPE":"0","SITE":"AFWTR","ARG_OF_PERICENTER":"61.2859","MEAN_MOTION":"15.08836162","OBJECT_TYPE":"PAYLOAD","CENTER_NAME":"EARTH","MEAN_MOTION_DOT":"0.00002678","OBJECT_ID":"2021-125D","REF_FRAME":"TEME","MEAN_MOTION_DDOT":"0.0000000000000","TLE_LINE2":"2 50159  53.2168   1.6193 0001646  61.2859 298.8299 15.08836162 35763","ECCENTRICITY":"0.00016460","SEMIMAJOR_AXIS":"6917.892","APOAPSIS":"540.896","COUNTRY_CODE":"US","PERIOD":"95.438","DECAY_DATE":null,"ELEMENT_SET_NO":"999","OBJECT_NAME":"STARLINK-3297"},{"ELEMENT_SET_NO":"999","OBJECT_NAME":"STARLINK-3288","COUNTRY_CODE":"US","APOAPSIS":"540.901","DECAY_DATE":null,"PERIOD":"95.438","ECCENTRICITY":"0.00016720","SEMIMAJOR_AXIS":"6917.879","OBJECT_ID":"2021-125E","TLE_LINE2":"2 50160  53.2158   1.5981 0001672  57.5326 302.5828 15.08840388 38820","REF_FRAME":"TEME","MEAN_MOTION_DDOT":"0.0000000000000","ARG_OF_PERICENTER":"57.5326","EPHEMERIS_TYPE":"0","SITE":"AFWTR","MEAN_MOTION_DOT":"0.00004328","OBJECT_TYPE":"PAYLOAD","CENTER_NAME":"EARTH","MEAN_MOTION":"15.08840388","TLE_LINE1":"1 50160U 21125E   22223.77877897  .00004328  00000-0  28988-3 0  9999","EPOCH":"2022-08-11T18:41:26.503008","GP_ID":"210035470","MEAN_ELEMENT_THEORY":"SGP4","TIME_SYSTEM":"UTC","MEAN_ANOMALY":"302.5828","INCLINATION":"53.2158","NORAD_CAT_ID":"50160","CLASSIFICATION_TYPE":"U","RA_OF_ASC_NODE":"1.5981","RCS_SIZE":"LARGE","FILE":"3534512","BSTAR":"0.00028988000000","PERIAPSIS":"538.588","LAUNCH_DATE":"2021-12-18","REV_AT_EPOCH":"3882"},{"REV_AT_EPOCH":"3882","LAUNCH_DATE":"2021-12-18","PERIAPSIS":"538.682","FILE":"3534744","RCS_SIZE":"LARGE","BSTAR":"-0.00010549000000","RA_OF_ASC_NODE":"1.5664","CLASSIFICATION_TYPE":"U","NORAD_CAT_ID":"50161","INCLINATION":"53.2168","MEAN_ANOMALY":"306.0884","TIME_SYSTEM":"UTC","MEAN_ELEMENT_THEORY":"SGP4","GP_ID":"210041201","EPOCH":"2022-08-11T18:46:44.230368","TLE_LINE1":"1 50161U 21125F   22223.78245637 -.00001967  00000-0 -10549-3 0  9994","MEAN_MOTION":"15.08851881","OBJECT_TYPE":"PAYLOAD","CENTER_NAME":"EARTH","MEAN_MOTION_DOT":"-0.00001967","SITE":"AFWTR","EPHEMERIS_TYPE":"0","ARG_OF_PERICENTER":"54.0245","MEAN_MOTION_DDOT":"0.0000000000000","REF_FRAME":"TEME","TLE_LINE2":"2 50161  53.2168   1.5664 0001485  54.0245 306.0884 15.08851881 38825","OBJECT_ID":"2021-125F","SEMIMAJOR_AXIS":"6917.844","ECCENTRICITY":"0.00014850","DECAY_DATE":null,"PERIOD":"95.437","APOAPSIS":"540.736","COUNTRY_CODE":"US","OBJECT_NAME":"STARLINK-3304","ELEMENT_SET_NO":"999"},{"MEAN_MOTION_DDOT":"0.0000000000000","REF_FRAME":"TEME","TLE_LINE2":"2 50162  53.2017 265.4222 0006127  45.4533 111.6808 15.81171965 40178","OBJECT_ID":"2021-125G","SEMIMAJOR_AXIS":"6705.262","ECCENTRICITY":"0.00061270","PERIOD":"91.072","DECAY_DATE":null,"APOAPSIS":"331.236","COUNTRY_CODE":"US","OBJECT_NAME":"STARLINK-3303","ELEMENT_SET_NO":"999","LAUNCH_DATE":"2021-12-18","REV_AT_EPOCH":"4017","PERIAPSIS":"323.019","FILE":"3534744","RCS_SIZE":"LARGE","BSTAR":"0.00045550000000","RA_OF_ASC_NODE":"265.4222","CLASSIFICATION_TYPE":"U","NORAD_CAT_ID":"50162","INCLINATION":"53.2017","MEAN_ANOMALY":"111.6808","TIME_SYSTEM":"UTC","MEAN_ELEMENT_THEORY":"SGP4","EPOCH":"2022-08-11T22:00:00.999936","GP_ID":"210041155","TLE_LINE1":"1 50162U 21125G   22223.91667824  .00091511  00000-0  45550-3 0  9998","MEAN_MOTION":"15.81171965","CENTER_NAME":"EARTH","OBJECT_TYPE":"PAYLOAD","MEAN_MOTION_DOT":"0.00091511","SITE":"AFWTR","EPHEMERIS_TYPE":"0","ARG_OF_PERICENTER":"45.4533"},{"COUNTRY_CODE":"US","APOAPSIS":"540.836","DECAY_DATE":null,"PERIOD":"95.439","ELEMENT_SET_NO":"999","OBJECT_NAME":"STARLINK-3306","OBJECT_ID":"2021-125H","TLE_LINE2":"2 50163  53.2188 341.9266 0001496  64.0792 296.0354 15.08821638 39095","REF_FRAME":"TEME","MEAN_MOTION_DDOT":"0.0000000000000","ECCENTRICITY":"0.00014960","SEMIMAJOR_AXIS":"6917.937","TLE_LINE1":"1 50163U 21125H   22223.70062668 -.00000605  00000-0 -19951-4 0  9994","EPOCH":"2022-08-11T16:48:54.145152","GP_ID":"210040850","ARG_OF_PERICENTER":"64.0792","EPHEMERIS_TYPE":"0","SITE":"AFWTR","MEAN_MOTION_DOT":"-0.00000605","OBJECT_TYPE":"PAYLOAD","CENTER_NAME":"EARTH","MEAN_MOTION":"15.08821638","PERIAPSIS":"538.767","LAUNCH_DATE":"2021-12-18","REV_AT_EPOCH":"3909","MEAN_ELEMENT_THEORY":"SGP4","TIME_SYSTEM":"UTC","MEAN_ANOMALY":"296.0354","NORAD_CAT_ID":"50163","INCLINATION":"53.2188","CLASSIFICATION_TYPE":"U","RA_OF_ASC_NODE":"341.9266","FILE":"3534732","RCS_SIZE":"LARGE","BSTAR":"-0.00001995100000"},{"TLE_LINE1":"1 50165U 21125K   22223.76774970  .00000510  00000-0  50154-4 0  9991","EPOCH":"2022-08-11T18:25:33.574080","GP_ID":"210041045","ARG_OF_PERICENTER":"59.1630","EPHEMERIS_TYPE":"0","SITE":"AFWTR","MEAN_MOTION_DOT":"0.00000510","OBJECT_TYPE":"PAYLOAD","CENTER_NAME":"EARTH","MEAN_MOTION":"15.08827246","PERIAPSIS":"538.809","LAUNCH_DATE":"2021-12-18","REV_AT_EPOCH":"3622","MEAN_ELEMENT_THEORY":"SGP4","TIME_SYSTEM":"UTC","MEAN_ANOMALY":"300.9501","NORAD_CAT_ID":"50165","INCLINATION":"53.2186","CLASSIFICATION_TYPE":"U","RA_OF_ASC_NODE":"1.6425","FILE":"3534733","RCS_SIZE":"LARGE","BSTAR":"0.00005015400000","COUNTRY_CODE":"US","APOAPSIS":"540.760","DECAY_DATE":null,"PERIOD":"95.438","ELEMENT_SET_NO":"999","OBJECT_NAME":"STARLINK-3298","OBJECT_ID":"2021-125K","TLE_LINE2":"2 50165  53.2186   1.6425 0001410  59.1630 300.9501 15.08827246 36226","REF_FRAME":"TEME","MEAN_MOTION_DDOT":"0.0000000000000","ECCENTRICITY":"0.00014100","SEMIMAJOR_AXIS":"6917.919"},{"REV_AT_EPOCH":"3636","LAUNCH_DATE":"2021-12-18","PERIAPSIS":"538.789","FILE":"3534742","RCS_SIZE":"LARGE","BSTAR":"0.00004787800000","RA_OF_ASC_NODE":"351.5252","CLASSIFICATION_TYPE":"U","NORAD_CAT_ID":"50166","INCLINATION":"53.2184","MEAN_ANOMALY":"306.2211","MEAN_ELEMENT_THEORY":"SGP4","TIME_SYSTEM":"UTC","EPOCH":"2022-08-11T18:58:40.850112","GP_ID":"210041192","TLE_LINE1":"1 50166U 21125L   22223.79075058  .00000474  00000-0  47878-4 0  9994","MEAN_MOTION":"15.08822117","CENTER_NAME":"EARTH","OBJECT_TYPE":"PAYLOAD","MEAN_MOTION_DOT":"0.00000474","SITE":"AFWTR","EPHEMERIS_TYPE":"0","ARG_OF_PERICENTER":"53.8916","MEAN_MOTION_DDOT":"0.0000000000000","REF_FRAME":"TEME","TLE_LINE2":"2 50166  53.2184 351.5252 0001462  53.8916 306.2211 15.08822117 36369","OBJECT_ID":"2021-125L","SEMIMAJOR_AXIS":"6917.935","ECCENTRICITY":"0.00014620","DECAY_DATE":null,"PERIOD":"95.439","APOAPSIS":"540.811","COUNTRY_CODE":"US","OBJECT_NAME":"STARLINK-3305","ELEMENT_SET_NO":"999"},{"ECCENTRICITY":"0.00012660","SEMIMAJOR_AXIS":"6917.889","OBJECT_ID":"2021-125M","MEAN_MOTION_DDOT":"0.0000000000000","REF_FRAME":"TEME","TLE_LINE2":"2 50167  53.2197   1.6713 0001266  69.2750 290.8378 15.08837201 38823","ELEMENT_SET_NO":"999","OBJECT_NAME":"STARLINK-3271","APOAPSIS":"540.630","COUNTRY_CODE":"US","DECAY_DATE":null,"PERIOD":"95.438","INCLINATION":"53.2197","NORAD_CAT_ID":"50167","MEAN_ANOMALY":"290.8378","MEAN_ELEMENT_THEORY":"SGP4","TIME_SYSTEM":"UTC","BSTAR":"0.00010435000000","FILE":"3534744","RCS_SIZE":"LARGE","RA_OF_ASC_NODE":"1.6713","CLASSIFICATION_TYPE":"U","LAUNCH_DATE":"2021-12-18","REV_AT_EPOCH":"3882","PERIAPSIS":"538.878","SITE":"AFWTR","EPHEMERIS_TYPE":"0","ARG_OF_PERICENTER":"69.2750","MEAN_MOTION":"15.08837201","CENTER_NAME":"EARTH","OBJECT_TYPE":"PAYLOAD","MEAN_MOTION_DOT":"0.00001373","TLE_LINE1":"1 50167U 21125M   22223.76037633  .00001373  00000-0  10435-3 0  9996","GP_ID":"210041208","EPOCH":"2022-08-11T18:14:56.514912"}];
